{
  "type": "FeatureCollection",
  "features": [
    {
      "type": "Feature",
      "properties": {
        "norad_id": 34088,
        "name": "IRIDIUM 33 DEB",
        "group": "iridium-33-debris",
        "lat": -16.53683324326197,
        "lon": -155.12824677626585,
        "alt_km": 594.3444298250806,
        "timestamp": "2025-12-27T19:21:59.130842+00:00",
        "meta_object_name": "IRIDIUM 33 DEB",
        "meta_object_id": "1997-051CX",
        "meta_epoch": "2025-12-27T12:35:22.337376",
        "meta_mean_motion": 14.92069086,
        "meta_eccentricity": 0.0007333,
        "meta_inclination": 86.3845,
        "meta_ra_of_asc_node": 23.9259,
        "meta_arg_of_pericenter": 131.6966,
        "meta_mean_anomaly": 348.9416,
        "meta_ephemeris_type": 0,
        "meta_classification_type": "U",
        "meta_norad_cat_id": 34088,
        "meta_element_set_no": 999,
        "meta_rev_at_epoch": 88962,
        "meta_bstar": 0.0025882,
        "meta_mean_motion_dot": 0.00026378,
        "meta_mean_motion_ddot": 0,
        "tle_line1": "1 34088U 97051CX  25361.52456409  .00026378  00000+0  25882-2 0  9999",
        "tle_line2": "2 34088  86.3845  23.9259 0007333 131.6966 348.9416 14.92069086889620"
      },
      "geometry": {
        "type": "Point",
        "coordinates": [
          -155.12824677626585,
          -16.53683324326197
        ]
      }
    },
    {
      "type": "Feature",
      "properties": {
        "norad_id": 34091,
        "name": "IRIDIUM 33 DEB",
        "group": "iridium-33-debris",
        "lat": -55.368340812063884,
        "lon": -114.75601058044376,
        "alt_km": 603.1921088274394,
        "timestamp": "2025-12-27T19:21:59.130851+00:00",
        "meta_object_name": "IRIDIUM 33 DEB",
        "meta_object_id": "1997-051DA",
        "meta_epoch": "2025-12-27T03:43:50.479104",
        "meta_mean_motion": 14.82901423,
        "meta_eccentricity": 0.00343023,
        "meta_inclination": 86.3407,
        "meta_ra_of_asc_node": 60.2263,
        "meta_arg_of_pericenter": 241.6734,
        "meta_mean_anomaly": 118.1028,
        "meta_ephemeris_type": 0,
        "meta_classification_type": "U",
        "meta_norad_cat_id": 34091,
        "meta_element_set_no": 999,
        "meta_rev_at_epoch": 88080,
        "meta_bstar": 0.0057592703,
        "meta_mean_motion_dot": 0.00047447,
        "meta_mean_motion_ddot": 0,
        "tle_line1": "1 34091U 97051DA  25361.15544536  .00047447  00000+0  57593-2 0  9995",
        "tle_line2": "2 34091  86.3407  60.2263 0034302 241.6734 118.1028 14.82901423880804"
      },
      "geometry": {
        "type": "Point",
        "coordinates": [
          -114.75601058044376,
          -55.368340812063884
        ]
      }
    },
    {
      "type": "Feature",
      "properties": {
        "norad_id": 34097,
        "name": "IRIDIUM 33 DEB",
        "group": "iridium-33-debris",
        "lat": 69.96122916759032,
        "lon": 5.2529663519075696,
        "alt_km": 795.1769227456589,
        "timestamp": "2025-12-27T19:21:59.130861+00:00",
        "meta_object_name": "IRIDIUM 33 DEB",
        "meta_object_id": "1997-051DG",
        "meta_epoch": "2025-12-26T22:57:25.330752",
        "meta_mean_motion": 14.34897502,
        "meta_eccentricity": 0.0081165,
        "meta_inclination": 86.2009,
        "meta_ra_of_asc_node": 355.1315,
        "meta_arg_of_pericenter": 315.5596,
        "meta_mean_anomaly": 43.9106,
        "meta_ephemeris_type": 0,
        "meta_classification_type": "U",
        "meta_norad_cat_id": 34097,
        "meta_element_set_no": 999,
        "meta_rev_at_epoch": 87323,
        "meta_bstar": 0.0019362,
        "meta_mean_motion_dot": 5.728e-05,
        "meta_mean_motion_ddot": 0,
        "tle_line1": "1 34097U 97051DG  25360.95654318  .00005728  00000+0  19362-2 0  9996",
        "tle_line2": "2 34097  86.2009 355.1315 0081165 315.5596  43.9106 14.34897502873237"
      },
      "geometry": {
        "type": "Point",
        "coordinates": [
          5.2529663519075696,
          69.96122916759032
        ]
      }
    },
    {
      "type": "Feature",
      "properties": {
        "norad_id": 34145,
        "name": "IRIDIUM 33 DEB",
        "group": "iridium-33-debris",
        "lat": 24.906596962585823,
        "lon": -32.42135066870459,
        "alt_km": 713.0080500956501,
        "timestamp": "2025-12-27T19:21:59.130871+00:00",
        "meta_object_name": "IRIDIUM 33 DEB",
        "meta_object_id": "1997-051DY",
        "meta_epoch": "2025-12-27T09:15:44.885088",
        "meta_mean_motion": 14.42402475,
        "meta_eccentricity": 0.0055366,
        "meta_inclination": 86.2126,
        "meta_ra_of_asc_node": 326.0035,
        "meta_arg_of_pericenter": 47.3344,
        "meta_mean_anomaly": 313.2501,
        "meta_ephemeris_type": 0,
        "meta_classification_type": "U",
        "meta_norad_cat_id": 34145,
        "meta_element_set_no": 999,
        "meta_rev_at_epoch": 87849,
        "meta_bstar": 0.0015408,
        "meta_mean_motion_dot": 5.21e-05,
        "meta_mean_motion_ddot": 0,
        "tle_line1": "1 34145U 97051DY  25361.38593617  .00005210  00000+0  15408-2 0  9995",
        "tle_line2": "2 34145  86.2126 326.0035 0055366  47.3344 313.2501 14.42402475878497"
      },
      "geometry": {
        "type": "Point",
        "coordinates": [
          -32.42135066870459,
          24.906596962585823
        ]
      }
    },
    {
      "type": "Feature",
      "properties": {
        "norad_id": 34146,
        "name": "IRIDIUM 33 DEB",
        "group": "iridium-33-debris",
        "lat": 28.388917558949704,
        "lon": -14.843448204730366,
        "alt_km": 742.3628637361517,
        "timestamp": "2025-12-27T19:21:59.130881+00:00",
        "meta_object_name": "IRIDIUM 33 DEB",
        "meta_object_id": "1997-051DZ",
        "meta_epoch": "2025-12-27T11:32:41.786016",
        "meta_mean_motion": 14.49145613,
        "meta_eccentricity": 0.0027213,
        "meta_inclination": 86.2844,
        "meta_ra_of_asc_node": 343.2878,
        "meta_arg_of_pericenter": 171.1363,
        "meta_mean_anomaly": 318.529,
        "meta_ephemeris_type": 0,
        "meta_classification_type": "U",
        "meta_norad_cat_id": 34146,
        "meta_element_set_no": 999,
        "meta_rev_at_epoch": 88320,
        "meta_bstar": 0.00099857,
        "meta_mean_motion_dot": 3.835e-05,
        "meta_mean_motion_ddot": 0,
        "tle_line1": "1 34146U 97051DZ  25361.48103919  .00003835  00000+0  99857-3 0  9991",
        "tle_line2": "2 34146  86.2844 343.2878 0027213 171.1363 318.5290 14.49145613883201"
      },
      "geometry": {
        "type": "Point",
        "coordinates": [
          -14.843448204730366,
          28.388917558949704
        ]
      }
    },
    {
      "type": "Feature",
      "properties": {
        "norad_id": 34159,
        "name": "IRIDIUM 33 DEB",
        "group": "iridium-33-debris",
        "lat": -70.05366033585524,
        "lon": -128.0519295299746,
        "alt_km": 752.6032660937799,
        "timestamp": "2025-12-27T19:21:59.130890+00:00",
        "meta_object_name": "IRIDIUM 33 DEB",
        "meta_object_id": "1997-051EN",
        "meta_epoch": "2025-12-27T09:51:29.456640",
        "meta_mean_motion": 14.38529868,
        "meta_eccentricity": 0.0026334,
        "meta_inclination": 86.3493,
        "meta_ra_of_asc_node": 41.9846,
        "meta_arg_of_pericenter": 236.0798,
        "meta_mean_anomaly": 123.7896,
        "meta_ephemeris_type": 0,
        "meta_classification_type": "U",
        "meta_norad_cat_id": 34159,
        "meta_element_set_no": 999,
        "meta_rev_at_epoch": 88170,
        "meta_bstar": 0.00043614,
        "meta_mean_motion_dot": 1.357e-05,
        "meta_mean_motion_ddot": 0,
        "tle_line1": "1 34159U 97051EN  25361.41075760  .00001357  00000+0  43614-3 0  9997",
        "tle_line2": "2 34159  86.3493  41.9846 0026334 236.0798 123.7896 14.38529868881706"
      },
      "geometry": {
        "type": "Point",
        "coordinates": [
          -128.0519295299746,
          -70.05366033585524
        ]
      }
    },
    {
      "type": "Feature",
      "properties": {
        "norad_id": 34350,
        "name": "IRIDIUM 33 DEB",
        "group": "iridium-33-debris",
        "lat": -67.52794488285373,
        "lon": -12.66391585177572,
        "alt_km": 763.3850509304993,
        "timestamp": "2025-12-27T19:21:59.130899+00:00",
        "meta_object_name": "IRIDIUM 33 DEB",
        "meta_object_id": "1997-051ES",
        "meta_epoch": "2025-12-27T11:56:39.334272",
        "meta_mean_motion": 14.45422738,
        "meta_eccentricity": 0.0023548,
        "meta_inclination": 86.3275,
        "meta_ra_of_asc_node": 356.4028,
        "meta_arg_of_pericenter": 90.0616,
        "meta_mean_anomaly": 34.0808,
        "meta_ephemeris_type": 0,
        "meta_classification_type": "U",
        "meta_norad_cat_id": 34350,
        "meta_element_set_no": 999,
        "meta_rev_at_epoch": 88506,
        "meta_bstar": 0.00040811,
        "meta_mean_motion_dot": 1.461e-05,
        "meta_mean_motion_ddot": 0,
        "tle_line1": "1 34350U 97051ES  25361.49767748  .00001461  00000+0  40811-3 0  9994",
        "tle_line2": "2 34350  86.3275 356.4028 0023548  90.0616  34.0808 14.45422738885060"
      },
      "geometry": {
        "type": "Point",
        "coordinates": [
          -12.66391585177572,
          -67.52794488285373
        ]
      }
    }
  ]
}